LEMUR-2-LEIA-PHILIP     
1 63246U 25052AN  26186.24658311  .00002666  00000+0  23440-3 0  9993
2 63246  97.6815  77.8917 0004680 146.1109 214.0413 14.97370821 71373
LEMUR-2-LIA-MARTIN      
1 63248U 25052AQ  26186.24523326  .00008990  00000+0  76625-3 0  9991
2 63248  97.6859  78.3919 0005018 115.4192 244.7550 14.97964934 71385
LEMUR-2-DELOITTE-1      
1 63259U 25052BB  26186.29088936  .00006501  00000+0  55909-3 0  9999
2 63259  97.6885  78.7686 0002298  65.6875 294.4587 14.97735353 71408
LEMUR-2-EMERSONROSE     
1 63261U 25052BD  26186.18150072  .00007328  00000+0  60575-3 0  9994
2 63261  97.6867  79.2519 0002629  74.7094 285.4420 14.99227224 71438
LEMUR-2-MARACHE-FRAN    
1 63262U 25052BE  26186.21110920  .00008333  00000+0  66966-3 0  9994
2 63262  97.6875  79.6354 0004393 300.0229  60.0558 15.00269174 71469
LEMUR-2-THEFALCONER     
1 63264U 25052BG  26186.25313051  .00007097  00000+0  61313-3 0  9997
2 63264  97.6840  78.3312 0001019  28.6348 331.4930 14.97522093 71398
LEMUR-2-UNTITLED-SC     
1 63351U 25061A   26186.00520406  .00005692  00000+0  31952-3 0  9996
2 63351  97.5650 161.2388 0018113 198.3571 161.7008 15.13600053 70283
LEMUR-2-ESPERANZA       
1 63352U 25061B   26186.37788584  .00007510  00000+0  41913-3 0  9999
2 63352  97.5655 161.7064 0017779 195.9184 164.1491 15.13705012 70346
LEMUR-2-KREMPEL-BRO2    
1 63353U 25061C   26186.00309338  .00005664  00000+0  31318-3 0  9992
2 63353  97.5704 161.8905 0018879 190.0662 170.0194 15.14131233 70307
LEMUR-2-THERMORAPTOR    
1 63354U 25061D   26186.38070466  .00005064  00000+0  27979-3 0  9993
2 63354  97.5707 162.3450 0018691 187.3934 172.7024 15.14217282 70361
LEMUR-2-NEUROSPICY      
1 63355U 25061E   26185.88844190  .00005998  00000+0  32991-3 0  9997
2 63355  97.5633 161.4679 0016383 192.3209 167.7625 15.14329215 70293
LEMUR-2-TILLINFINITY    
1 63356U 25061F   26186.37924641  .00005122  00000+0  27750-3 0  9999
2 63356  97.5620 162.2589 0018031 178.7002 181.4280 15.14918475 70393
LEMUR-2-LANGER2SPACE    
1 63358U 25061H   26185.98874644  .00005259  00000+0  28904-3 0  9997
2 63358  97.5628 161.5885 0016329 189.9761 170.1149 15.14416285 70311
LEMUR-2-BALTO           
1 63395U 25052BH  26186.26243178  .00009307  00000+0  74654-3 0  9993
2 63395  97.6924  79.6648 0005789   5.9502 354.1790 15.00297759 71478
LEMUR-2-KRISH           
1 64561U 25135AK  26186.26399295  .00008948  00000+0  79449-3 0  9990
2 64561  97.7758 301.0176 0001642 104.1888 255.9516 14.96384157 56628
